{"fetched_at":"2026-03-29T16:36:15Z","count":15609,"tles":[{"name":"STARLINK-4473","line1":"1 53660U 22105N   26087.92145874  .00044874  00000+0  31324-2 0  9994","line2":"2 53660  97.6015 329.1027 0002188  75.7113 284.4356 15.05195822196126","category":"Starlink"}]}