{
  "norad_id": 53660,
  "name": "STARLINK-4473",
  "history": [
    {
      "epoch": "2026-03-28T22:06:54.035136Z",
      "apogee_km": 552.4207246343203,
      "perigee_km": 549.3885760081394,
      "latitude_deg": -3.2672468739678414e-05,
      "longitude_deg": 171.04259082360213,
      "height_km": 553.5915202296457,
      "semi_major_axis_km": 6929.041650321229,
      "eccentricity": 0.0002188,
      "inclination_deg": 97.6015,
      "raan_deg": 329.1027,
      "arg_perigee_deg": 75.7113,
      "mean_anomaly_deg": 284.4356,
      "mean_motion_rev_day": 15.05195822
    }
  ]
}